SOYUZ-MS 28             
1 66664U 25275A   26188.50835634  .00005806  00000+0  11369-3 0  9999
2 66664  51.6304 199.5144 0006687 267.6545  92.3678 15.48933372645122
CREW DRAGON 12          
1 67796U 26031A   26188.50835634  .00005806  00000+0  11369-3 0  9997
2 67796  51.6304 199.5144 0006687 267.6545  92.3678 15.48933372627657
SHENZHOU-23 (SZ-23)     
1 69180U 26113A   26188.45886303  .00008899  00000+0  11943-3 0  9993
2 69180  41.4676 198.7215 0002931 276.4067  83.6437 15.58027856296762
